H1 CPF  1  DLR 2022 04 07 10  5972 technosat            
H2  1704205 6203    42829 2022 04 07 00 00 00 2022 04 14 00 00 00    60 1 1  0 0 0
H9
10 0 59680  72000.000000  0       2810289.040        816532.625       6323553.890
10 0 59680  72060.000000  0       3222482.810        775770.961       6128883.074
10 0 59680  72120.000000  0       3620739.942        728200.872       5908253.505
10 0 59680  72180.000000  0       4003321.086        674150.694       5662588.851
10 0 59680  72240.000000  0       4368554.217        613991.118       5392919.355
10 0 59680  72300.000000  0       4714842.138        548133.030       5100377.814
10 0 59680  72360.000000  0       5040669.764        477025.128       4786195.124
10 0 59680  72420.000000  0       5344611.107        401151.324       4451695.315
10 0 59680  72480.000000  0       5625335.883        321027.958       4098290.127
10 0 59680  72540.000000  0       5881615.693        237200.786       3727473.172
10 0 59680  72600.000000  0       6112329.822        150241.797       3340813.690
10 0 59680  72660.000000  0       6316470.511         60745.867       2939949.877
10 0 59680  72720.000000  0       6493147.656        -30672.818       2526581.909
10 0 59680  72780.000000  0       6641593.050       -123384.489       2102464.746
10 0 59680  72840.000000  0       6761164.142       -216747.582       1669400.541
10 0 59680  72900.000000  0       6851347.105       -310112.572       1229230.762
10 0 59680  72960.000000  0       6911759.280       -402825.886        783828.167
10 0 59680  73020.000000  0       6942151.069       -494233.897        335088.593
10 0 59680  73080.000000  0       6942407.137       -583686.933       -115077.511
10 0 59680  73140.000000  0       6912546.809       -670543.271       -564753.548
10 0 59680  73200.000000  0       6852723.910       -754173.098      -1012025.181
10 0 59680  73260.000000  0       6763225.962       -833962.395      -1454988.831
10 0 59680  73320.000000  0       6644472.645       -909316.744      -1891760.109
10 0 59680  73380.000000  0       6497013.622       -979665.022      -2320482.076
10 0 59680  73440.000000  0       6321525.756      -1044462.978      -2739333.372
10 0 59680  73500.000000  0       6118809.714      -1103196.634      -3146536.150
10 0 59680  73560.000000  0       5889785.975      -1155385.519      -3540363.775
10 0 59680  73620.000000  0       5635490.281      -1200585.701      -3919148.238
10 0 59680  73680.000000  0       5357068.562      -1238392.588      -4281287.251
10 0 59680  73740.000000  0       5055771.397      -1268443.499      -4625250.981
10 0 59680  73800.000000  0       4732948.051      -1290420.025      -4949588.449
10 0 59680  73860.000000  0       4390040.074      -1304050.141      -5252933.547
10 0 59680  73920.000000  0       4028574.495      -1309110.072      -5534010.632
10 0 59680  73980.000000  0       3650156.687      -1305425.885      -5791639.656
10 0 59680  74040.000000  0       3256462.963      -1292874.775      -6024740.835
10 0 59680  74100.000000  0       2849232.954      -1271386.082      -6232338.890
10 0 59680  74160.000000  0       2430261.775      -1240941.981      -6413566.862
10 0 59680  74220.000000  0       2001391.970      -1201577.911      -6567669.462
10 0 59680  74280.000000  0       1564505.316      -1153382.750      -6694005.889
10 0 59680  74340.000000  0       1121514.570      -1096498.744      -6792052.200
10 0 59680  74400.000000  0        674355.124      -1031121.115      -6861403.289
10 0 59680  74460.000000  0        224976.540       -957497.346      -6901774.328
10 0 59680  74520.000000  0       -224665.819       -875926.228      -6913001.691
10 0 59680  74580.000000  0       -672619.132       -786756.661      -6895043.548
10 0 59680  74640.000000  0      -1116941.546       -690386.162      -6847979.981
10 0 59680  74700.000000  0      -1555710.494       -587259.070      -6772012.547
10 0 59680  74760.000000  0      -1987030.890       -477864.514      -6667463.392
10 0 59680  74820.000000  0      -2409043.180       -362734.172      -6534773.884
10 0 59680  74880.000000  0      -2819931.177       -242439.769      -6374502.848
10 0 59680  74940.000000  0      -3217929.755       -117590.331      -6187324.424
10 0 59680  75000.000000  0      -3601332.442         11170.777      -5974025.511
10 0 59680  75060.000000  0      -3968498.824        143169.040      -5735502.632
10 0 59680  75120.000000  0      -4317861.574        277702.161      -5472758.318
10 0 59680  75180.000000  0      -4647933.166        414043.595      -5186897.159
10 0 59680  75240.000000  0      -4957312.362        551446.247      -4879121.477
10 0 59680  75300.000000  0      -5244690.400        689146.388      -4550726.520
10 0 59680  75360.000000  0      -5508856.773        826367.719      -4203095.189
10 0 59680  75420.000000  0      -5748704.539        962325.511      -3837692.360
10 0 59680  75480.000000  0      -5963235.218       1096230.857      -3456058.892
10 0 59680  75540.000000  0      -6151563.230       1227294.992      -3059805.203
10 0 59680  75600.000000  0      -6312919.801       1354733.649      -2650604.534
10 0 59680  75660.000000  0      -6446656.368       1477771.422      -2230185.918
10 0 59680  75720.000000  0      -6552247.451       1595646.164      -1800326.880
10 0 59680  75780.000000  0      -6629292.976       1707613.379      -1362845.846
10 0 59680  75840.000000  0      -6677519.976       1812950.537       -919594.282
10 0 59680  75900.000000  0      -6696783.653       1910961.252       -472448.691
10 0 59680  75960.000000  0      -6687067.836       2000979.370        -23302.501
10 0 59680  76020.000000  0      -6648484.798       2082372.943        425942.119
10 0 59680  76080.000000  0      -6581274.491       2154548.071        873382.460
10 0 59680  76140.000000  0      -6485803.211       2216952.558       1317123.519
10 0 59680  76200.000000  0      -6362561.614       2269079.350       1755286.242
10 0 59680  76260.000000  0      -6212162.113       2310469.777       2186015.641
10 0 59680  76320.000000  0      -6035335.736       2340716.518       2607488.781
10 0 59680  76380.000000  0      -5832928.448       2359466.298       3017922.626
10 0 59680  76440.000000  0      -5605896.906       2366422.301       3415581.698
10 0 59680  76500.000000  0      -5355303.690       2361346.283       3798785.449
10 0 59680  76560.000000  0      -5082312.106       2344060.409       4165915.326
10 0 59680  76620.000000  0      -4788180.560       2314448.785       4515421.550
10 0 59680  76680.000000  0      -4474256.553       2272458.645       4845829.535
10 0 59680  76740.000000  0      -4141970.351       2218101.264       5155746.001
10 0 59680  76800.000000  0      -3792828.297       2151452.528       5443864.678
10 0 59680  76860.000000  0      -3428405.888       2072653.204       5708971.707
10 0 59680  76920.000000  0      -3050340.466       1981908.888       5949950.619
10 0 59680  76980.000000  0      -2660323.718       1879489.588       6165786.798
10 0 59680  77040.000000  0      -2260094.042       1765728.973       6355571.552
10 0 59680  77100.000000  0      -1851428.725       1641023.335       6518505.733
10 0 59680  77160.000000  0      -1436136.028       1505830.221       6653902.859
10 0 59680  77220.000000  0      -1016047.238       1360666.773       6761191.768
10 0 59680  77280.000000  0       -593008.708       1206107.780       6839918.870
10 0 59680  77340.000000  0       -168873.838       1042783.423       6889749.982
10 0 59680  77400.000000  0        254504.942        871376.736       6910471.686
10 0 59680  77460.000000  0        675284.157        692620.803       6901992.224
10 0 59680  77520.000000  0       1091637.210        507295.695       6864341.932
10 0 59680  77580.000000  0       1501762.216        316225.135       6797673.217
10 0 59680  77640.000000  0       1903889.721        120272.918       6702260.077
10 0 59680  77700.000000  0       2296290.290        -79660.924       6578497.189
10 0 59680  77760.000000  0       2677281.950       -282644.201       6426898.507
10 0 59680  77820.000000  0       3045237.477       -487716.809       6248095.345
10 0 59680  77880.000000  0       3398591.412       -693895.172       6042833.995
10 0 59680  77940.000000  0       3735846.878       -900176.888       5811972.900
10 0 59680  78000.000000  0       4055582.063      -1105545.568       5556479.290
10 0 59680  78060.000000  0       4356456.379      -1308975.773       5277425.421
10 0 59680  78120.000000  0       4637216.323      -1509438.087       4975984.349
10 0 59680  78180.000000  0       4896700.994      -1705904.247       4653425.258
10 0 59680  78240.000000  0       5133847.234      -1897352.368       4311108.342
10 0 59680  78300.000000  0       5347694.354      -2082772.234       3950479.217
10 0 59680  78360.000000  0       5537388.363      -2261170.602       3573062.894
10 0 59680  78420.000000  0       5702185.693      -2431576.489       3180457.347
10 0 59680  78480.000000  0       5841456.381      -2593046.403       2774326.759
10 0 59680  78540.000000  0       5954686.762      -2744669.475       2356394.431
10 0 59680  78600.000000  0       6041481.604      -2885572.488       1928435.405
10 0 59680  78660.000000  0       6101565.761      -3014924.795       1492268.839
10 0 59680  78720.000000  0       6134785.212      -3131943.103       1049749.963
10 0 59680  78780.000000  0       6141107.348      -3235895.946        602761.909
10 0 59680  78840.000000  0       6120620.753      -3326107.947        153207.515
10 0 59680  78900.000000  0       6073534.496      -3401963.866       -296999.076
10 0 59680  78960.000000  0       6000176.725      -3462912.356       -745940.985
10 0 59680  79020.000000  0       5900992.567      -3508469.331      -1191707.120
10 0 59680  79080.000000  0       5776541.498      -3538220.985      -1632400.573
10 0 59680  79140.000000  0       5627494.204      -3551826.496      -2066146.950
99
